{"type": "FeatureCollection", "features": [{"type": "Feature", "properties": {"norad_id": 2807, "name": "OPS 7218 (TRANSIT 16)", "group": "nnss", "lat": 54.336633158798605, "lon": -5.253364306333108, "alt_km": 1062.2536654796622, "timestamp": "2025-12-04T10:51:50.373959+00:00", "meta": {"OBJECT_NAME": "OPS 7218 (TRANSIT 16)", "OBJECT_ID": "1967-048A", "EPOCH": "2025-12-04T02:00:07.320384", "MEAN_MOTION": 13.50719782, "ECCENTRICITY": 0.0021506, "INCLINATION": 89.6734, "RA_OF_ASC_NODE": 354.3034, "ARG_OF_PERICENTER": 137.388, "MEAN_ANOMALY": 282.8204, "EPHEMERIS_TYPE": 0, "CLASSIFICATION_TYPE": "U", "NORAD_CAT_ID": 2807, "ELEMENT_SET_NO": 999, "REV_AT_EPOCH": 88159, "BSTAR": 0.0002602, "MEAN_MOTION_DOT": 1.78e-06, "MEAN_MOTION_DDOT": 0}, "tle": {"line1": "1 02807U 67048A   25338.08341806  .00000178  00000+0  26020-3 0  9991", "line2": "2 02807  89.6734 354.3034 0021506 137.3880 282.8204 13.50719782881592"}}, "geometry": {"type": "Point", "coordinates": [-5.253364306333108, 54.336633158798605]}}, {"type": "Feature", "properties": {"norad_id": 2965, "name": "OPS 4947 (TRANSIT 17)", "group": "nnss", "lat": 38.013947449498005, "lon": 25.65356190198652, "alt_km": 1082.3317279637185, "timestamp": "2025-12-04T10:51:50.373982+00:00", "meta": {"OBJECT_NAME": "OPS 4947 (TRANSIT 17)", "OBJECT_ID": "1967-092A", "EPOCH": "2025-12-04T03:37:29.284896", "MEAN_MOTION": 13.53450417, "ECCENTRICITY": 0.00458, "INCLINATION": 89.2506, "RA_OF_ASC_NODE": 25.0903, "ARG_OF_PERICENTER": 260.3204, "MEAN_ANOMALY": 108.6282, "EPHEMERIS_TYPE": 0, "CLASSIFICATION_TYPE": "U", "NORAD_CAT_ID": 2965, "ELEMENT_SET_NO": 999, "REV_AT_EPOCH": 86981, "BSTAR": 0.00028703, "MEAN_MOTION_DOT": 2.05e-06, "MEAN_MOTION_DDOT": 0}, "tle": {"line1": "1 02965U 67092A   25338.15103339  .00000205  00000+0  28703-3 0  9991", "line2": "2 02965  89.2506  25.0903 0045800 260.3204 108.6282 13.53450417869819"}}, "geometry": {"type": "Point", "coordinates": [25.65356190198652, 38.013947449498005]}}, {"type": "Feature", "properties": {"norad_id": 3133, "name": "OPS 7034 (TRANSIT 18)", "group": "nnss", "lat": -63.903838619358744, "lon": 93.56058232777494, "alt_km": 1039.0400594419161, "timestamp": "2025-12-04T10:51:50.373996+00:00", "meta": {"OBJECT_NAME": "OPS 7034 (TRANSIT 18)", "OBJECT_ID": "1968-012A", "EPOCH": "2025-12-04T02:36:41.851008", "MEAN_MOTION": 13.51562737, "ECCENTRICITY": 0.007305, "INCLINATION": 90.027, "RA_OF_ASC_NODE": 273.6148, "ARG_OF_PERICENTER": 194.2556, "MEAN_ANOMALY": 176.9062, "EPHEMERIS_TYPE": 0, "CLASSIFICATION_TYPE": "U", "NORAD_CAT_ID": 3133, "ELEMENT_SET_NO": 999, "REV_AT_EPOCH": 56802, "BSTAR": 0.00021236, "MEAN_MOTION_DOT": 1.5e-06, "MEAN_MOTION_DDOT": 0}, "tle": {"line1": "1 03133U 68012A   25338.10881772  .00000150  00000+0  21236-3 0  9994", "line2": "2 03133  90.0270 273.6148 0073050 194.2556 176.9062 13.51562737568020"}}, "geometry": {"type": "Point", "coordinates": [93.56058232777494, -63.903838619358744]}}, {"type": "Feature", "properties": {"norad_id": 4507, "name": "NNSS 19 (TRANSIT 19)", "group": "nnss", "lat": -40.295692494916565, "lon": 54.523226242443876, "alt_km": 1088.20259758652, "timestamp": "2025-12-04T10:51:50.374008+00:00", "meta": {"OBJECT_NAME": "NNSS 19 (TRANSIT 19)", "OBJECT_ID": "1970-067A", "EPOCH": "2025-12-03T23:05:56.276160", "MEAN_MOTION": 13.51311536, "ECCENTRICITY": 0.0171147, "INCLINATION": 90.0056, "RA_OF_ASC_NODE": 234.5277, "ARG_OF_PERICENTER": 318.9954, "MEAN_ANOMALY": 39.8432, "EPHEMERIS_TYPE": 0, "CLASSIFICATION_TYPE": "U", "NORAD_CAT_ID": 4507, "ELEMENT_SET_NO": 999, "REV_AT_EPOCH": 72103, "BSTAR": 0.00032729, "MEAN_MOTION_DOT": 2.41e-06, "MEAN_MOTION_DDOT": 0}, "tle": {"line1": "1 04507U 70067A   25337.96245690  .00000241  00000+0  32729-3 0  9999", "line2": "2 04507  90.0056 234.5277 0171147 318.9954  39.8432 13.51311536721039"}}, "geometry": {"type": "Point", "coordinates": [54.523226242443876, -40.295692494916565]}}, {"type": "Feature", "properties": {"norad_id": 6909, "name": "NNSS 20 (TRANSIT 20)", "group": "nnss", "lat": 54.061238800005015, "lon": -104.62239612815999, "alt_km": 912.2690318767209, "timestamp": "2025-12-04T10:51:50.374019+00:00", "meta": {"OBJECT_NAME": "NNSS 20 (TRANSIT 20)", "OBJECT_ID": "1973-081A", "EPOCH": "2025-12-03T18:50:37.207968", "MEAN_MOTION": 13.71427987, "ECCENTRICITY": 0.01564724, "INCLINATION": 89.8557, "RA_OF_ASC_NODE": 255.1885, "ARG_OF_PERICENTER": 104.8334, "MEAN_ANOMALY": 257.022, "EPHEMERIS_TYPE": 0, "CLASSIFICATION_TYPE": "U", "NORAD_CAT_ID": 6909, "ELEMENT_SET_NO": 999, "REV_AT_EPOCH": 80238, "BSTAR": 0.00028938661, "MEAN_MOTION_DOT": 2.96e-06, "MEAN_MOTION_DDOT": 0}, "tle": {"line1": "1 06909U 73081A   25337.78515287  .00000296  00000+0  28939-3 0  9996", "line2": "2 06909  89.8557 255.1885 0156472 104.8334 257.0220 13.71427987802388"}}, "geometry": {"type": "Point", "coordinates": [-104.62239612815999, 54.061238800005015]}}, {"type": "Feature", "properties": {"norad_id": 10457, "name": "TRANSAT", "group": "nnss", "lat": -62.02493025972004, "lon": 78.22761962074911, "alt_km": 1081.472040128936, "timestamp": "2025-12-04T10:51:50.374030+00:00", "meta": {"OBJECT_NAME": "TRANSAT", "OBJECT_ID": "1977-106A", "EPOCH": "2025-12-04T01:21:07.223040", "MEAN_MOTION": 13.48941513, "ECCENTRICITY": 0.0024605, "INCLINATION": 89.6482, "RA_OF_ASC_NODE": 78.9044, "ARG_OF_PERICENTER": 215.1183, "MEAN_ANOMALY": 319.1093, "EPHEMERIS_TYPE": 0, "CLASSIFICATION_TYPE": "U", "NORAD_CAT_ID": 10457, "ELEMENT_SET_NO": 999, "REV_AT_EPOCH": 36626, "BSTAR": 0.0001922, "MEAN_MOTION_DOT": 1.31e-06, "MEAN_MOTION_DDOT": 0}, "tle": {"line1": "1 10457U 77106A   25338.05633360  .00000131  00000+0  19220-3 0  9996", "line2": "2 10457  89.6482  78.9044 0024605 215.1183 319.1093 13.48941513366264"}}, "geometry": {"type": "Point", "coordinates": [78.22761962074911, -62.02493025972004]}}, {"type": "Feature", "properties": {"norad_id": 12458, "name": "NOVA 1", "group": "nnss", "lat": -64.11799890868335, "lon": -88.19288471174477, "alt_km": 1185.3698294237647, "timestamp": "2025-12-04T10:51:50.374041+00:00", "meta": {"OBJECT_NAME": "NOVA 1", "OBJECT_ID": "1981-044A", "EPOCH": "2025-12-03T21:32:55.161024", "MEAN_MOTION": 13.23276955, "ECCENTRICITY": 0.0015609, "INCLINATION": 89.8522, "RA_OF_ASC_NODE": 91.5102, "ARG_OF_PERICENTER": 125.7622, "MEAN_ANOMALY": 356.6957, "EPHEMERIS_TYPE": 0, "CLASSIFICATION_TYPE": "U", "NORAD_CAT_ID": 12458, "ELEMENT_SET_NO": 999, "REV_AT_EPOCH": 15069, "BSTAR": 0.00016147, "MEAN_MOTION_DOT": 7.7e-07, "MEAN_MOTION_DDOT": 0}, "tle": {"line1": "1 12458U 81044A   25337.89786066  .00000077  00000+0  16147-3 0  9992", "line2": "2 12458  89.8522  91.5102 0015609 125.7622 356.6957 13.23276955150695"}}, "geometry": {"type": "Point", "coordinates": [-88.19288471174477, -64.11799890868335]}}, {"type": "Feature", "properties": {"norad_id": 15362, "name": "NOVA 3", "group": "nnss", "lat": 56.09601602932303, "lon": -99.38058994712195, "alt_km": 1182.477382580033, "timestamp": "2025-12-04T10:51:50.374052+00:00", "meta": {"OBJECT_NAME": "NOVA 3", "OBJECT_ID": "1984-110A", "EPOCH": "2025-12-04T02:02:19.787136", "MEAN_MOTION": 13.23042938, "ECCENTRICITY": 0.0031203, "INCLINATION": 90.1225, "RA_OF_ASC_NODE": 80.4327, "ARG_OF_PERICENTER": 356.2569, "MEAN_ANOMALY": 176.9125, "EPHEMERIS_TYPE": 0, "CLASSIFICATION_TYPE": "U", "NORAD_CAT_ID": 15362, "ELEMENT_SET_NO": 999, "REV_AT_EPOCH": 98584, "BSTAR": 0.00012082, "MEAN_MOTION_DOT": 5.9e-07, "MEAN_MOTION_DDOT": 0}, "tle": {"line1": "1 15362U 84110A   25338.08495124  .00000059  00000+0  12082-3 0  9994", "line2": "2 15362  90.1225  80.4327 0031203 356.2569 176.9125 13.23042938985847"}}, "geometry": {"type": "Point", "coordinates": [-99.38058994712195, 56.09601602932303]}}, {"type": "Feature", "properties": {"norad_id": 15935, "name": "OSCAR 30", "group": "nnss", "lat": 2.013389263627172, "lon": -80.28263543172277, "alt_km": 1083.0143951956497, "timestamp": "2025-12-04T10:51:50.374062+00:00", "meta": {"OBJECT_NAME": "OSCAR 30", "OBJECT_ID": "1985-066A", "EPOCH": "2025-12-03T22:00:57.818304", "MEAN_MOTION": 13.36076089, "ECCENTRICITY": 0.01693469, "INCLINATION": 90.1646, "RA_OF_ASC_NODE": 99.7029, "ARG_OF_PERICENTER": 108.5282, "MEAN_ANOMALY": 14.1575, "EPHEMERIS_TYPE": 0, "CLASSIFICATION_TYPE": "U", "NORAD_CAT_ID": 15935, "ELEMENT_SET_NO": 999, "REV_AT_EPOCH": 96335, "BSTAR": 0.00023899718, "MEAN_MOTION_DOT": 1.43e-06, "MEAN_MOTION_DDOT": 0}, "tle": {"line1": "1 15935U 85066A   25337.91733586  .00000143  00000+0  23900-3 0  9994", "line2": "2 15935  90.1646  99.7029 0169346 108.5282  14.1575 13.36076089963354"}}, "geometry": {"type": "Point", "coordinates": [-80.28263543172277, 2.013389263627172]}}, {"type": "Feature", "properties": {"norad_id": 15936, "name": "OSCAR 24", "group": "nnss", "lat": -76.83450623213545, "lon": -88.60569649633263, "alt_km": 1233.7038426957115, "timestamp": "2025-12-04T10:51:50.374073+00:00", "meta": {"OBJECT_NAME": "OSCAR 24", "OBJECT_ID": "1985-066B", "EPOCH": "2025-12-03T19:48:06.613056", "MEAN_MOTION": 13.35933575, "ECCENTRICITY": 0.01703838, "INCLINATION": 90.1787, "RA_OF_ASC_NODE": 92.1477, "ARG_OF_PERICENTER": 115.2258, "MEAN_ANOMALY": 3.8692, "EPHEMERIS_TYPE": 0, "CLASSIFICATION_TYPE": "U", "NORAD_CAT_ID": 15936, "ELEMENT_SET_NO": 999, "REV_AT_EPOCH": 96524, "BSTAR": 0.00014632153, "MEAN_MOTION_DOT": 9.2e-07, "MEAN_MOTION_DDOT": 0}, "tle": {"line1": "1 15936U 85066B   25337.82507654  .00000092  00000+0  14632-3 0  9995", "line2": "2 15936  90.1787  92.1477 0170383 115.2258   3.8692 13.35933575965242"}}, "geometry": {"type": "Point", "coordinates": [-88.60569649633263, -76.83450623213545]}}]}